ONEWEB-0319             
1 49105U 21075AG  25182.72797900  .00000056  00000+0  11166-3 0  9991
2 49105  87.9059  75.6536 0001521  69.3420 290.7874 13.17650374187453
ONEWEB-0323             
1 49106U 21075AH  25182.65469002  .00000384  00000+0  10308-2 0  9993
2 49106  87.8867  60.3566 0001262  60.9638 299.1617 13.12442890188573
ONEWEB-0329             
1 49107U 21075AJ  25182.73641757  .00000021  00000+0  20257-4 0  9996
2 49107  87.9059  75.6567 0001745  72.3836 287.7486 13.17648756188426
ONEWEB-0330             
1 49108U 21075AK  25183.11778185  .00000038  00000+0  63411-4 0  9993
2 49108  87.9059  75.5833 0001963  71.5613 288.5731 13.17648008188510
ONEWEB-0292             
1 49186U 21083A   25182.82480023 -.00000236  00000+0 -68127-3 0  9996
2 49186  87.8961  29.8838 0001623  86.6575 273.4740 13.13469517184938
ONEWEB-0303             
1 49187U 21083B   25182.90663954 -.00000030  00000+0 -10845-3 0  9998
2 49187  87.9134  45.0560 0001612  81.9091 278.2224 13.18766920183812
ONEWEB-0306             
1 49188U 21083C   25182.66923106  .00001793  00000+0  45060-2 0  9991
2 49188  87.9137  45.0882 0002151  84.1812 275.9565 13.18825791183823
ONEWEB-0307             
1 49189U 21083D   25182.81887728 -.00000057  00000+0 -19165-3 0  9990
2 49189  87.8964  29.8892 0002127  82.3576 277.7795 13.13469469184931
